ORBCOMM FM06            
1 25118U 97084G   26182.85978736  .00001356  00000+0  40387-3 0  9996
2 25118  45.0147 342.0766 0000348 182.5150 330.1986 14.47599749496519
ORBCOMM FM04            
1 25159U 98007C   26182.95618983  .00000783  00000+0  31325-3 0  9998
2 25159 107.9627 199.8166 0041740 299.4550  60.2429 14.35766640478718
ORBCOMM FM19            
1 25415U 98046C   26182.74618304  .00000821  00000+0  30611-3 0  9990
2 25415  44.9922 174.3553 0004049 344.5178 185.8910 14.39518825458876
ORBCOMM FM20            
1 25416U 98046D   26182.74059474  .00000528  00000+0  21916-3 0  9990
2 25416  44.9921 182.4652 0002359 299.2840  60.7773 14.38083068458884
ORBCOMM FM27            
1 25481U 98053G   26181.93226480  .00000799  00000+0  30133-3 0  9994
2 25481  45.0052 270.0688 0002109 243.3176 116.7457 14.39166005452217
ORBCOMM FM32            
1 25982U 99065C   26182.81913674  .00000742  00000+0  29463-3 0  9992
2 25982  45.0149 103.9796 0004478 121.7676 238.3609 14.37150816389196
ORBCOMM FM109           
1 40086U 14040A   26182.82305131  .00000456  00000+0  13268-3 0  9996
2 40086  47.0041  22.2892 0001901 285.2515  74.8161 14.58861239636481
ORBCOMM FM110           
1 41182U 15081D   26182.69130681  .00000698  00000+0  18368-3 0  9995
2 41182  47.0026 292.8632 0002854 160.4731 199.6264 14.58902552559748
ORBCOMM FM118           
1 41183U 15081E   26182.72561776  .00000440  00000+0  12926-3 0  9992
2 41183  47.0046 293.0352 0002309 114.2015 245.9113 14.58893448559853
ORBCOMM FM112           
1 41184U 15081F   26182.31899694  .00000446  00000+0  13051-3 0  9997
2 41184  46.9971 203.4205 0004156 273.2489  86.7921 14.58919300561019
ORBCOMM FM113           
1 41185U 15081G   26182.77549024  .00000289  00000+0  97348-4 0  9994
2 41185  46.9988 201.6454 0002630 274.5809  85.4776 14.58870780561066
ORBCOMM FM108           
1 41187U 15081J   26182.87469081  .00000641  00000+0  17180-3 0  9998
2 41187  47.0045 112.7536 0003176 274.9978  85.0546 14.58892518562227
ORBCOMM FM117           
1 41188U 15081K   26182.84031126  .00000561  00000+0  15492-3 0  9996
2 41188  47.0006 111.5461 0003624 279.2356  80.8119 14.58879603562268
ORBCOMM FM116           
1 41189U 15081L   26182.47813415  .00000304  00000+0  10040-3 0  9994
2 41189  47.0005 203.0491 0000940 184.3505 175.7373 14.58897315561027
