OBJECT_NAME,OBJECT_ID,EPOCH,MEAN_MOTION,ECCENTRICITY,INCLINATION,RA_OF_ASC_NODE,ARG_OF_PERICENTER,MEAN_ANOMALY,EPHEMERIS_TYPE,CLASSIFICATION_TYPE,NORAD_CAT_ID,ELEMENT_SET_NO,REV_AT_EPOCH,BSTAR,MEAN_MOTION_DOT,MEAN_MOTION_DDOT
ORBCOMM FM06,1997-084G,2026-07-01T20:38:05.627904,14.47599749,.00003485,45.0147,342.0766,182.5150,330.1986,0,U,25118,999,49651,.40386632E-3,.1356E-4,0
ORBCOMM FM04,1998-007C,2026-07-01T22:56:54.801312,14.35766640,.00417409,107.9627,199.8166,299.4550,60.2429,0,U,25159,999,47871,.31324659E-3,.783E-5,0
ORBCOMM FM19,1998-046C,2026-07-01T17:54:30.214656,14.39518825,.00040495,44.9922,174.3553,344.5178,185.8910,0,U,25415,999,45887,.30610951E-3,.821E-5,0
ORBCOMM FM20,1998-046D,2026-07-01T17:46:27.385536,14.38083068,.00023599,44.9921,182.4652,299.2840,60.7773,0,U,25416,999,45888,.21915516E-3,.528E-5,0
ORBCOMM FM27,1998-053G,2026-06-30T22:22:27.678720,14.39166005,.0002109,45.0052,270.0688,243.3176,116.7457,0,U,25481,999,45221,.30133E-3,.799E-5,0
ORBCOMM FM32,1999-065C,2026-07-01T19:39:33.414336,14.37150816,.00044787,45.0149,103.9796,121.7676,238.3609,0,U,25982,999,38919,.29462855E-3,.742E-5,0
ORBCOMM FM109,2014-040A,2026-07-01T19:45:11.633184,14.58861239,.00019013,47.0041,22.2892,285.2515,74.8161,0,U,40086,999,63648,.13267521E-3,.456E-5,0
ORBCOMM FM110,2015-081D,2026-07-01T16:35:28.908384,14.58902552,.00028541,47.0026,292.8632,160.4731,199.6264,0,U,41182,999,55974,.18367558E-3,.698E-5,0
ORBCOMM FM118,2015-081E,2026-07-01T17:24:53.374464,14.58893448,.00023091,47.0046,293.0352,114.2015,245.9113,0,U,41183,999,55985,.12926438E-3,.44E-5,0
ORBCOMM FM112,2015-081F,2026-07-01T07:39:21.335616,14.58919300,.00041567,46.9971,203.4205,273.2489,86.7921,0,U,41184,999,56101,.13050993E-3,.446E-5,0
ORBCOMM FM113,2015-081G,2026-07-01T18:36:42.356736,14.58870780,.00026308,46.9988,201.6454,274.5809,85.4776,0,U,41185,999,56106,.97347658E-4,.289E-5,0
ORBCOMM FM108,2015-081J,2026-07-01T20:59:33.285984,14.58892518,.00031768,47.0045,112.7536,274.9978,85.0546,0,U,41187,999,56222,.17180213E-3,.641E-5,0
ORBCOMM FM117,2015-081K,2026-07-01T20:10:02.892864,14.58879603,.00036245,47.0006,111.5461,279.2356,80.8119,0,U,41188,999,56226,.15491911E-3,.561E-5,0
ORBCOMM FM116,2015-081L,2026-07-01T11:28:30.790560,14.58897315,.00009405,47.0005,203.0491,184.3505,175.7373,0,U,41189,999,56102,.10040343E-3,.304E-5,0
